IRIDIUM 7               
1 24793U 97020B   24145.59362153  .00000761  00000+0  25949-3 0  9998
2 24793  86.3953 339.7189 0002018  81.5168 278.6257 14.35226263416148
IRIDIUM 5               
1 24795U 97020D   24145.81019409  .00008917  00000+0  84483-3 0  9997
2 24795  86.3924 261.7073 0124090  85.6550 275.8842 14.87728208427626
IRIDIUM 4               
1 24796U 97020E   24145.61566535  .00000794  00000+0  26595-3 0  9998
2 24796  86.3946 336.8451 0002234  85.2629 274.8823 14.36151308416680
IRIDIUM 914             
1 24836U 97030A   24145.57045694  .00000894  00000+0  27779-3 0  9993
2 24836  86.3937 346.6094 0003876  76.6191 283.5440 14.40008667551189
IRIDIUM 16              
1 24841U 97030F   24145.58131506  .00000853  00000+0  27615-3 0  9992
2 24841  86.4055   8.5151 0000182 158.0030 202.1175 14.37902757411141
IRIDIUM 911             
1 24842U 97030G   24145.85669712  .00001060  00000+0  28861-3 0  9993
2 24842  86.4479   7.5461 0012860 319.4660  40.5584 14.46540802418901
IRIDIUM 17              
1 24870U 97034B   24145.60522426  .00000884  00000+0  29169-3 0  9996
2 24870  86.3987  38.0968 0001993 130.5185 229.6186 14.36998383407765
IRIDIUM 920             
1 24871U 97034C   24145.60518932  .00000814  00000+0  24860-3 0  9990
2 24871  86.4001  18.2367 0009501 287.9502  72.0661 14.40715410410619
